{
  "norad_id": 67375,
  "name": "AETHER-4",
  "history": [
    {
      "epoch": "2026-03-28T22:31:26.599584Z",
      "apogee_km": 608.0794743362094,
      "perigee_km": 599.8071056086501,
      "latitude_deg": -7.625195114253175e-05,
      "longitude_deg": -76.33958723458724,
      "height_km": 603.8857534922458,
      "semi_major_axis_km": 6982.0802899724295,
      "eccentricity": 0.0005924,
      "inclination_deg": 97.8042,
      "raan_deg": 87.873,
      "arg_perigee_deg": 41.761,
      "mean_anomaly_deg": 318.4057,
      "mean_motion_rev_day": 14.88077342
    },
    {
      "epoch": "2026-03-28T22:31:26.600448Z",
      "apogee_km": 608.0791252321951,
      "perigee_km": 599.8074547126644,
      "latitude_deg": 2.7339968570989987e-05,
      "longitude_deg": -76.33960496524506,
      "height_km": 603.885996205916,
      "semi_major_axis_km": 6982.0802899724295,
      "eccentricity": 0.00059235,
      "inclination_deg": 97.8042,
      "raan_deg": 87.873,
      "arg_perigee_deg": 41.761,
      "mean_anomaly_deg": 318.4058,
      "mean_motion_rev_day": 14.88077342
    },
    {
      "epoch": "2026-03-30T00:20:41.990496Z",
      "apogee_km": 608.0132172629101,
      "perigee_km": 599.8525739689139,
      "latitude_deg": 3.323972594582065e-05,
      "longitude_deg": -103.65515886274729,
      "height_km": 603.7784368706754,
      "semi_major_axis_km": 6982.069895615912,
      "eccentricity": 0.0005844,
      "inclination_deg": 97.8041,
      "raan_deg": 88.932,
      "arg_perigee_deg": 38.7367,
      "mean_anomaly_deg": 321.4268,
      "mean_motion_rev_day": 14.88080665
    },
    {
      "epoch": "2026-03-30T06:48:00.839520Z",
      "apogee_km": 607.9991180907073,
      "perigee_km": 599.8637515917981,
      "latitude_deg": 4.497174700608188e-06,
      "longitude_deg": 159.51600065021458,
      "height_km": 603.756023719798,
      "semi_major_axis_km": 6982.068434841252,
      "eccentricity": 0.00058259,
      "inclination_deg": 97.8042,
      "raan_deg": 89.1968,
      "arg_perigee_deg": 38.0348,
      "mean_anomaly_deg": 322.1279,
      "mean_motion_rev_day": 14.88081132
    },
    {
      "epoch": "2026-03-30T13:15:19.635840Z",
      "apogee_km": 607.983202410699,
      "perigee_km": 599.8746499679792,
      "latitude_deg": 3.11054820661781e-05,
      "longitude_deg": 62.68737281955959,
      "height_km": 603.7317280151657,
      "semi_major_axis_km": 6982.065926189339,
      "eccentricity": 0.00058067,
      "inclination_deg": 97.8041,
      "raan_deg": 89.4616,
      "arg_perigee_deg": 37.2834,
      "mean_anomaly_deg": 322.8785,
      "mean_motion_rev_day": 14.88081934
    },
    {
      "epoch": "2026-03-30T21:19:28.130592Z",
      "apogee_km": 607.9625083719075,
      "perigee_km": 599.8897073653279,
      "latitude_deg": 5.52401421255642e-05,
      "longitude_deg": -58.348508017447394,
      "height_km": 603.7046930695127,
      "semi_major_axis_km": 6982.063107868617,
      "eccentricity": 0.00057811,
      "inclination_deg": 97.8041,
      "raan_deg": 89.7925,
      "arg_perigee_deg": 36.3691,
      "mean_anomaly_deg": 323.7918,
      "mean_motion_rev_day": 14.88082835
    },
    {
      "epoch": "2026-03-31T10:14:05.711136Z",
      "apogee_km": 607.9275635516597,
      "perigee_km": 599.9150930552651,
      "latitude_deg": 4.300247300307545e-06,
      "longitude_deg": 107.9943011626215,
      "height_km": 603.665282230589,
      "semi_major_axis_km": 6982.058328303462,
      "eccentricity": 0.00057379,
      "inclination_deg": 97.8042,
      "raan_deg": 90.3221,
      "arg_perigee_deg": 34.9161,
      "mean_anomaly_deg": 325.2431,
      "mean_motion_rev_day": 14.88084363
    },
    {
      "epoch": "2026-04-01T10:26:31.053696Z",
      "apogee_km": 607.8730964257502,
      "perigee_km": 599.9624283799485,
      "latitude_deg": 1.149687358066911e-05,
      "longitude_deg": 104.88745973240053,
      "height_km": 603.6016781106225,
      "semi_major_axis_km": 6982.0547624028495,
      "eccentricity": 0.0005665,
      "inclination_deg": 97.8043,
      "raan_deg": 91.315,
      "arg_perigee_deg": 32.2373,
      "mean_anomaly_deg": 327.9189,
      "mean_motion_rev_day": 14.88085503
    },
    {
      "epoch": "2026-04-02T10:38:56.175936Z",
      "apogee_km": 607.8099478826025,
      "perigee_km": 599.9960676283235,
      "latitude_deg": -4.561980013845789e-05,
      "longitude_deg": 101.78154724705472,
      "height_km": 603.5329566146761,
      "semi_major_axis_km": 6982.040007755462,
      "eccentricity": 0.00055957,
      "inclination_deg": 97.8043,
      "raan_deg": 92.3079,
      "arg_perigee_deg": 29.5105,
      "mean_anomaly_deg": 330.6426,
      "mean_motion_rev_day": 14.8809022
    },
    {
      "epoch": "2026-04-02T21:56:43.791936Z",
      "apogee_km": 607.7783515898846,
      "perigee_km": 600.0162843978851,
      "latitude_deg": 3.08718513006695e-06,
      "longitude_deg": -67.66749229776904,
      "height_km": 603.508393341222,
      "semi_major_axis_km": 6982.0343179938845,
      "eccentricity": 0.00055586,
      "inclination_deg": 97.8043,
      "raan_deg": 92.7712,
      "arg_perigee_deg": 28.2373,
      "mean_anomaly_deg": 331.9144,
      "mean_motion_rev_day": 14.88092039
    },
    {
      "epoch": "2026-04-03T17:18:39.698784Z",
      "apogee_km": 607.727064846893,
      "perigee_km": 600.0482341373809,
      "latitude_deg": 3.485124748262521e-05,
      "longitude_deg": 1.8485441342174285,
      "height_km": 603.4668881107436,
      "semi_major_axis_km": 6982.024649492137,
      "eccentricity": 0.0005499,
      "inclination_deg": 97.8043,
      "raan_deg": 93.5655,
      "arg_perigee_deg": 25.9808,
      "mean_anomaly_deg": 334.1684,
      "mean_motion_rev_day": 14.8809513
    },
    {
      "epoch": "2026-04-04T20:44:43.691712Z",
      "apogee_km": 607.6561478617296,
      "perigee_km": 600.1085849266565,
      "latitude_deg": 7.72933030416966e-05,
      "longitude_deg": -49.669492211235635,
      "height_km": 603.4310989963645,
      "semi_major_axis_km": 6982.019366394193,
      "eccentricity": 0.0005405,
      "inclination_deg": 97.8044,
      "raan_deg": 94.6908,
      "arg_perigee_deg": 22.6595,
      "mean_anomaly_deg": 337.486,
      "mean_motion_rev_day": 14.88096819
    },
    {
      "epoch": "2026-04-05T14:29:49.710048Z",
      "apogee_km": 607.6108582582274,
      "perigee_km": 600.1396862062029,
      "latitude_deg": -2.6705136669327805e-05,
      "longitude_deg": 44.05450910050884,
      "height_km": 603.405456550168,
      "semi_major_axis_km": 6982.012272232215,
      "eccentricity": 0.00053503,
      "inclination_deg": 97.8044,
      "raan_deg": 95.4189,
      "arg_perigee_deg": 20.3941,
      "mean_anomaly_deg": 339.7488,
      "mean_motion_rev_day": 14.88099087
    },
    {
      "epoch": "2026-04-05T20:57:08.221248Z",
      "apogee_km": 607.5848691585852,
      "perigee_km": 600.1629915396252,
      "latitude_deg": -2.908933263801488e-06,
      "longitude_deg": -52.77292788691647,
      "height_km": 603.4121419608385,
      "semi_major_axis_km": 6982.010930349105,
      "eccentricity": 0.0005315,
      "inclination_deg": 97.8044,
      "raan_deg": 95.6837,
      "arg_perigee_deg": 19.7097,
      "mean_anomaly_deg": 340.4324,
      "mean_motion_rev_day": 14.88099516
    },
    {
      "epoch": "2026-04-06T00:10:47.476416Z",
      "apogee_km": 607.5803025424766,
      "perigee_km": 600.1652685100516,
      "latitude_deg": 2.736507497525781e-05,
      "longitude_deg": -101.1866470857929,
      "height_km": 603.4032863595464,
      "semi_major_axis_km": 6982.009785526264,
      "eccentricity": 0.00053101,
      "inclination_deg": 97.8044,
      "raan_deg": 95.8161,
      "arg_perigee_deg": 19.199,
      "mean_anomaly_deg": 340.9426,
      "mean_motion_rev_day": 14.88099882
    },
    {
      "epoch": "2026-04-07T18:08:17.662272Z",
      "apogee_km": 607.4557073069855,
      "perigee_km": 600.268437461873,
      "latitude_deg": -7.059234677546242e-05,
      "longitude_deg": -10.56448245164372,
      "height_km": 603.4069237320796,
      "semi_major_axis_km": 6981.9990723844285,
      "eccentricity": 0.0005147,
      "inclination_deg": 97.8043,
      "raan_deg": 97.5372,
      "arg_perigee_deg": 13.937,
      "mean_anomaly_deg": 346.1987,
      "mean_motion_rev_day": 14.88103307
    },
    {
      "epoch": "2026-04-08T13:30:12.994560Z",
      "apogee_km": 607.4001505413225,
      "perigee_km": 600.3162182272472,
      "latitude_deg": 1.831526934384463e-05,
      "longitude_deg": 58.95404428626815,
      "height_km": 603.4206936397696,
      "semi_major_axis_km": 6981.995184384285,
      "eccentricity": 0.0005073,
      "inclination_deg": 97.8044,
      "raan_deg": 98.3316,
      "arg_perigee_deg": 11.5256,
      "mean_anomaly_deg": 348.6076,
      "mean_motion_rev_day": 14.8810455
    },
    {
      "epoch": "2026-04-09T12:05:47.462784Z",
      "apogee_km": 607.336295650548,
      "perigee_km": 600.3640832431665,
      "latitude_deg": -8.113801610895196e-05,
      "longitude_deg": 80.05927967169323,
      "height_km": 603.437304357972,
      "semi_major_axis_km": 6981.987189446857,
      "eccentricity": 0.0004993,
      "inclination_deg": 97.8044,
      "raan_deg": 99.2583,
      "arg_perigee_deg": 8.6579,
      "mean_anomaly_deg": 351.4722,
      "mean_motion_rev_day": 14.88107106
    },
    {
      "epoch": "2026-04-10T12:18:11.437632Z",
      "apogee_km": 607.255720369877,
      "perigee_km": 600.4343239342352,
      "latitude_deg": 1.6312784089573328e-05,
      "longitude_deg": 76.95813633396476,
      "height_km": 603.4854209740383,
      "semi_major_axis_km": 6981.982022152056,
      "eccentricity": 0.0004885,
      "inclination_deg": 97.8043,
      "raan_deg": 100.2512,
      "arg_perigee_deg": 5.7545,
      "mean_anomaly_deg": 354.3727,
      "mean_motion_rev_day": 14.88108758
    }
  ]
}